H1 CPF 01  gfz 2021 05 03 00  6231 tandemx   
H2 1003001  6202 36605    2021 05 03 00 59 42 2021 05 08 00 00 42   120 1 1  0 0 0
H9
10 0 59339  29502.000000  0    5742455.818  -3409478.123   1683548.368
10 0 59339  29622.000000  0    5789007.730  -3648194.355    794062.566
10 0 59339  29742.000000  0    5730747.228  -3823034.849   -109403.573
10 0 59339  29862.000000  0    5569896.406  -3929157.920  -1010945.585
10 0 59339  29982.000000  0    5310560.092  -3962993.208  -1894710.288
10 0 59339  30102.000000  0    4958624.621  -3922332.942  -2745182.371
10 0 59339  30222.000000  0    4521621.904  -3806395.938  -3547462.165
10 0 59339  30342.000000  0    4008562.654  -3615861.924  -4287529.236
10 0 59339  30462.000000  0    3429743.584  -3352876.298  -4952485.861
10 0 59339  30582.000000  0    2796533.926  -3021025.025  -5530776.505
10 0 59339  30702.000000  0    2121147.209  -2625282.283  -6012378.935
10 0 59339  30822.000000  0    1416404.136  -2171933.241  -6388967.519
10 0 59339  30942.000000  0     695488.768  -1668470.866  -6654047.892
10 0 59339  31062.000000  0     -28296.503  -1123469.558  -6803057.903
10 0 59339  31182.000000  0    -741771.941   -546439.848  -6833436.710
10 0 59339  31302.000000  0   -1432114.366     52334.357  -6744663.465
10 0 59339  31422.000000  0   -2087082.466    661974.640  -6538264.746
10 0 59339  31542.000000  0   -2695228.643   1271200.407  -6217790.825
10 0 59339  31662.000000  0   -3246095.243   1868532.293  -5788761.486
10 0 59339  31782.000000  0   -3730393.987   2442504.067  -5258581.956
10 0 59339  31902.000000  0   -4140166.344   2981880.875  -4636427.014
10 0 59339  32022.000000  0   -4468919.887   3475878.915  -3933092.289
10 0 59339  32142.000000  0   -4711736.999   3914382.307  -3160816.690
10 0 59339  32262.000000  0   -4865355.561   4288153.384  -2333077.121
10 0 59339  32382.000000  0   -4928218.029   4589030.299  -1464356.921
10 0 59339  32502.000000  0   -4900487.990   4810108.151   -569892.826
10 0 59339  32622.000000  0   -4784032.194   4945898.291    334596.694
10 0 59339  32742.000000  0   -4582366.927   4992461.025   1233194.874
10 0 59339  32862.000000  0   -4300571.910   4947506.865   2110076.410
10 0 59339  32982.000000  0   -3945170.346   4810464.114   2949795.954
10 0 59339  33102.000000  0   -3523980.477   4582511.420   3737567.612
10 0 59339  33222.000000  0   -3045943.442   4266575.034   4459530.370
10 0 59339  33342.000000  0   -2520931.532   3867291.127   5102995.217
10 0 59339  33462.000000  0   -1959540.660   3390933.294   5656668.467
10 0 59339  33582.000000  0   -1372872.830   2845307.844   6110847.050
10 0 59339  33702.000000  0    -772313.502   2239619.448   6457583.027
10 0 59339  33822.000000  0    -169310.127   1584311.098   6690815.167
10 0 59339  33942.000000  0     424845.543    890881.548   6806469.938
10 0 59339  34062.000000  0     999228.655    171682.157   6802527.577
10 0 59339  34182.000000  0    1543480.953   -560302.213   6679055.224
10 0 59339  34302.000000  0    2047996.960  -1291687.192   6438206.664
10 0 59339  34422.000000  0    2504093.559  -2008932.792   6084187.360
10 0 59339  34542.000000  0    2904161.369  -2698594.498   5623186.540
10 0 59339  34662.000000  0    3241794.415  -3347576.887   5063274.251
10 0 59339  34782.000000  0    3511895.526  -3943385.463   4414266.050
10 0 59339  34902.000000  0    3710756.870  -4474372.081   3687555.943
10 0 59339  35022.000000  0    3836112.194  -4929968.801   2895918.432
10 0 59339  35142.000000  0    3887159.835  -5300904.419   2053283.834
10 0 59339  35262.000000  0    3864555.918  -5579398.520   1174489.854
10 0 59339  35382.000000  0    3770377.162  -5759327.485    275014.184
10 0 59339  35502.000000  0    3608054.875  -5836358.296   -629304.702
10 0 59339  35622.000000  0    3382281.666  -5808048.444  -1522555.883
10 0 59339  35742.000000  0    3098891.103  -5673905.830  -2389044.694
10 0 59339  35862.000000  0    2764716.646  -5435410.247  -3213575.112
10 0 59339  35982.000000  0    2387431.431  -5095994.385  -3981721.308
10 0 59339  36102.000000  0    1975373.575  -4660985.769  -4680080.499
10 0 59339  36222.000000  0    1537362.742  -4137512.529  -5296502.452
10 0 59339  36342.000000  0    1082513.437  -3534376.453  -5820293.200
10 0 59339  36462.000000  0     620047.356  -2861896.824  -6242390.621
10 0 59339  36582.000000  0     159108.728  -2131728.435  -6555509.991
10 0 59339  36702.000000  0    -291412.917  -1356656.876  -6754258.577
10 0 59339  36822.000000  0    -723049.384   -550375.255  -6835219.033
10 0 59339  36942.000000  0   -1127908.219    272754.292  -6797001.390
10 0 59339  37062.000000  0   -1498813.553   1097950.130  -6640263.323
10 0 59339  37182.000000  0   -1829430.228   1910269.763  -6367699.974
10 0 59339  37302.000000  0   -2114369.806   2694873.414  -5984002.910
10 0 59339  37422.000000  0   -2349278.553   3437290.988  -5495789.108
10 0 59339  37542.000000  0   -2530904.483   4123687.462  -4911497.759
10 0 59339  37662.000000  0   -2657143.631   4741123.200  -4241256.154
10 0 59339  37782.000000  0   -2727063.290   5277803.188  -3496713.369
10 0 59339  37902.000000  0   -2740900.907   5723308.480  -2690845.595
10 0 59339  38022.000000  0   -2700039.659   6068808.049  -1837736.885
10 0 59339  38142.000000  0   -2606960.124   6307244.607   -952333.803
10 0 59339  38262.000000  0   -2465168.576   6433486.023    -50181.574
10 0 59339  38382.000000  0   -2279105.136   6444443.947    852852.636
10 0 59339  38502.000000  0   -2054030.901   6339151.883   1740869.966
10 0 59339  38622.000000  0   -1795896.524   6118796.179   2598230.426
10 0 59339  38742.000000  0   -1511197.983   5786703.967   3409836.087
10 0 59339  38862.000000  0   -1206823.523   5348289.130   4161402.590
10 0 59339  38982.000000  0    -889895.493   4810957.463   4839715.057
10 0 59339  39102.000000  0    -567608.399   4183971.452   5432862.291
10 0 59339  39222.000000  0    -247069.711   3478281.547   5930442.346
10 0 59339  39342.000000  0      64852.408   2706326.676   6323741.675
10 0 59339  39462.000000  0     361672.844   1881807.918   6605881.370
10 0 59339  39582.000000  0     637421.743   1019441.285   6771931.895
10 0 59339  39702.000000  0     886762.538    134692.485   6818993.319
10 0 59339  39822.000000  0    1105093.858   -756499.390   6746242.683
10 0 59339  39942.000000  0    1288633.948  -1638008.632   6554948.640
10 0 59339  40062.000000  0    1434486.400  -2493814.257   6248450.979
10 0 59339  40182.000000  0    1540686.034  -3308292.154   5832106.398
10 0 59339  40302.000000  0    1606223.750  -4066503.033   5313199.424
10 0 59339  40422.000000  0    1631050.717  -4754469.304   4700819.790
10 0 59339  40542.000000  0    1616062.462  -5359438.280   4005710.062
10 0 59339  40662.000000  0    1563062.281  -5870128.622   3240081.507
10 0 59339  40782.000000  0    1474703.742  -6276949.679   2417399.130
10 0 59339  40902.000000  0    1354414.300  -6572189.848   1552143.922
10 0 59339  41022.000000  0    1206301.731  -6750171.638    659554.492
10 0 59339  41142.000000  0    1035045.406  -6807367.382   -244648.080
10 0 59339  41262.000000  0     845773.613  -6742472.678  -1144547.276
10 0 59339  41382.000000  0     643931.558  -6556431.366  -2024321.896
10 0 59339  41502.000000  0     435144.753  -6252414.793  -2868531.047
10 0 59339  41622.000000  0     225080.587  -5835758.822  -3662389.753
10 0 59339  41742.000000  0      19310.937  -5313858.668  -4392030.306
10 0 59339  41862.000000  0    -176820.772  -4696023.974  -5044742.423
10 0 59339  41982.000000  0    -358324.431  -3993300.757  -5609188.359
10 0 59339  42102.000000  0    -520677.485  -3218263.723  -6075591.235
10 0 59339  42222.000000  0    -659925.979  -2384784.011  -6435893.546
10 0 59339  42342.000000  0    -772771.105  -1507777.345  -6683884.766
10 0 59339  42462.000000  0    -856639.791   -602937.993  -6815297.719
10 0 59339  42582.000000  0    -909738.199    313538.503  -6827874.393
10 0 59339  42702.000000  0    -931087.217   1225238.748  -6721399.175
10 0 59339  42822.000000  0    -920540.040   2115817.631  -6497702.087
10 0 59339  42942.000000  0    -878781.460   2969283.779  -6160630.975
10 0 59339  43062.000000  0    -807308.532   3770282.214  -5715993.938
10 0 59339  43182.000000  0    -708393.097   4504369.368  -5171469.074
10 0 59339  43302.000000  0    -585026.450   5158275.574  -4536483.648
10 0 59339  43422.000000  0    -440847.557   5720151.657  -3822061.760
10 0 59339  43542.000000  0    -280055.325   6179792.894  -3040641.606
10 0 59339  43662.000000  0    -107306.496   6528835.635  -2205865.595
10 0 59339  43782.000000  0      72398.485   6760922.418  -1332345.175
10 0 59339  43902.000000  0     253839.192   6871830.188   -435404.127
10 0 59339  44022.000000  0     431705.990   6859557.531    469194.692
10 0 59339  44142.000000  0     600734.484   6724368.103   1365533.889
10 0 59339  44262.000000  0     755839.308   6468787.573   2237830.715
10 0 59339  44382.000000  0     892242.915   6097554.511   3070723.080
10 0 59339  44502.000000  0    1005597.494   5617528.973   3849547.265
10 0 59339  44622.000000  0    1092098.656   5037558.811   4560601.067
10 0 59339  44742.000000  0    1148585.274   4368307.392   5191391.437
10 0 59339  44862.000000  0    1172622.406   3622043.593   5730851.260
10 0 59339  44982.000000  0    1162569.749   2812409.267   6169528.401
10 0 59339  45102.000000  0    1117630.286   1954162.999   6499746.823
10 0 59339  45222.000000  0    1037879.932   1062905.904   6715735.270
10 0 59339  45342.000000  0     924277.686    154794.938   6813721.639
10 0 59339  45462.000000  0     778656.015   -753748.972   6791994.469
10 0 59339  45582.000000  0     603691.265  -1646337.532   6650932.523
10 0 59339  45702.000000  0     402854.440  -2506910.632   6392998.744
10 0 59339  45822.000000  0     180343.125  -3320026.514   6022700.216
10 0 59339  45942.000000  0     -59003.701  -4071140.421   5546511.337
99
